NORAD_CAT_ID,OBJECT_NAME,OBJECT_TYPE,EPOCH,MEAN_MOTION,ECCENTRICITY,INCLINATION,RA_OF_ASC_NODE,ARG_OF_PERICENTER,MEAN_ANOMALY,BSTAR,MEAN_MOTION_DOT,MEAN_MOTION_DDOT,TLE_LINE0,TLE_LINE1,TLE_LINE2,SEMIMAJOR_AXIS,PERIOD,APOGEE,PERIGEE,DECAYED
53633.0,STARLINK-4593,PAYLOAD,2024-06-24 05:30:33,15.08839582,0.0001359,53.2169,142.9667,93.1881,266.9266,8.4084e-05,1.051e-05,0.0,0 STARLINK-4593,1 53633U 22104AX  24176.22955347  .00001051  00000-0  84084-4 0  9991,2 53633  53.2169 142.9667 0001359  93.1881 266.9266 15.08839582101773,6917.882,95.438,540.687,538.807,0.0
53633.0,STARLINK-4593,PAYLOAD,2024-06-25 03:45:57,15.08842119,0.0001375,53.2166,138.8031,89.2068,270.9081,2.3442e-05,8.5e-07,0.0,0 STARLINK-4593,1 53633U 22104AX  24177.15691479  .00000085  00000-0  23442-4 0  9994,2 53633  53.2166 138.8031 0001375  89.2068 270.9081 15.08842119101220,6917.874,95.437,540.69,538.788,0.0
53633.0,STARLINK-4593,PAYLOAD,2024-06-26 03:36:44,15.08843311,0.0001348,53.217,134.3452,88.5997,271.5149,5.0346e-05,5.13e-06,0.0,0 STARLINK-4593,1 53633U 22104AX  24178.15051310  .00000513  00000-0  50346-4 0  9998,2 53633  53.2170 134.3452 0001348  88.5997 271.5149 15.08843311102066,6917.87,95.437,540.668,538.803,0.0
53633.0,STARLINK-4593,PAYLOAD,2024-06-27 03:27:31,15.08842052,0.0001391,53.2172,129.8835,90.2649,269.8503,4.5248e-05,4.32e-06,0.0,0 STARLINK-4593,1 53633U 22104AX  24179.14411461  .00000432  00000-0  45248-4 0  9990,2 53633  53.2172 129.8835 0001391  90.2649 269.8503 15.08842052101529,6917.874,95.437,540.701,538.777,0.0
53633.0,STARLINK-4593,PAYLOAD,2024-06-28 12:50:37,15.08841124,0.0001327,53.2166,123.6402,91.0084,269.1061,2.5883e-05,1.24e-06,0.0,0 STARLINK-4593,1 53633U 22104AX  24180.53515772  .00000124  00000-0  25883-4 0  9996,2 53633  53.2166 123.6402 0001327  91.0084 269.1061 15.08841124101739,6917.877,95.437,540.66,538.824,0.0
53633.0,STARLINK-4593,PAYLOAD,2024-06-29 12:41:26,15.08820379,0.0002079,53.2165,119.1771,88.3929,271.7302,-6.7678e-05,-1.365e-05,0.0,0 STARLINK-4593,1 53633U 22104AX  24181.52877777 -.00001365  00000-0 -67678-4 0  9990,2 53633  53.2165 119.1771 0002079  88.3929 271.7302 15.08820379101881,6917.94,95.439,541.244,538.367,0.0
53633.0,STARLINK-4593,PAYLOAD,2024-06-30 04:35:17,15.08826264,0.0001426,53.2173,116.2066,103.0906,257.0245,-5.4314e-05,-1.152e-05,0.0,0 STARLINK-4593,1 53633U 22104AX  24182.19117854 -.00001152  00000-0 -54314-4 0  9994,2 53633  53.2173 116.2066 0001426 103.0906 257.0245 15.08826264101983,6917.922,95.438,540.774,538.801,0.0
53633.0,STARLINK-4593,PAYLOAD,2024-06-30 12:32:13,15.08834283,0.0001476,53.2183,114.72,103.3265,256.7892,3.1485e-05,2.13e-06,0.0,0 STARLINK-4593,1 53633U 22104AX  24182.52237322  .00000213  00000-0  31485-4 0  9993,2 53633  53.2183 114.7200 0001476 103.3265 256.7892 15.08834283102720,6917.898,95.438,540.784,538.742,0.0
53633.0,STARLINK-4593,PAYLOAD,2024-07-01 04:26:03,15.08860996,0.0001382,53.2165,111.7457,103.9311,256.1835,0.00035309,5.339e-05,0.0,0 STARLINK-4593,1 53633U 22104AX  24183.18475747  .00005339  00000-0  35309-3 0  9993,2 53633  53.2165 111.7457 0001382 103.9311 256.1835 15.08860996102131,6917.816,95.436,540.637,538.725,0.0
53633.0,STARLINK-4593,PAYLOAD,2024-07-01 12:22:59,15.08842752,0.0001137,53.2152,110.2551,87.8831,272.2291,6.2694e-05,7.1e-06,0.0,0 STARLINK-4593,1 53633U 22104AX  24183.51596562  .00000710  00000-0  62694-4 0  9995,2 53633  53.2152 110.2551 0001137  87.8831 272.2291 15.08842752102181,6917.872,95.437,540.524,538.95,0.0
53633.0,STARLINK-4593,PAYLOAD,2024-07-02 12:13:46,15.08837316,0.0001252,53.2127,105.7933,102.5797,257.5335,-2.5252e-05,-6.9e-06,0.0,0 STARLINK-4593,1 53633U 22104AX  24184.50956968 -.00000690  00000-0 -25252-4 0  9993,2 53633  53.2127 105.7933 0001252 102.5797 257.5335 15.08837316102332,6917.889,95.438,540.62,538.887,0.0
53633.0,STARLINK-4593,PAYLOAD,2024-07-02 18:35:19,15.08839665,0.0001258,53.2123,104.6024,104.0228,256.0904,-1.8155e-05,-5.77e-06,0.0,0 STARLINK-4593,1 53633U 22104AX  24184.77452862 -.00000577  00000-0 -18155-4 0  9994,2 53633  53.2123 104.6024 0001258 104.0228 256.0904 15.08839665103065,6917.881,95.438,540.617,538.876,0.0
53633.0,STARLINK-4593,PAYLOAD,2024-07-03 04:07:37,15.08850146,0.0001196,53.2157,102.8218,104.2271,255.8854,0.00017948,2.57e-05,0.0,0 STARLINK-4593,1 53633U 22104AX  24185.17196474  .00002570  00000-0  17948-3 0  9994,2 53633  53.2157 102.8218 0001196 104.2271 255.8854 15.08850146102436,6917.849,95.437,540.542,538.887,0.0
53633.0,STARLINK-4593,PAYLOAD,2024-07-03 12:04:33,15.08847361,0.0001015,53.2153,101.3357,101.5521,258.5585,0.00019156,2.763e-05,0.0,0 STARLINK-4593,1 53633U 22104AX  24185.50316576  .00002763  00000-0  19156-3 0  9995,2 53633  53.2153 101.3357 0001015 101.5521 258.5585 15.08847361103176,6917.858,95.437,540.425,539.021,0.0
53633.0,STARLINK-4593,PAYLOAD,2024-07-04 03:58:24,15.08850049,0.0001449,53.2155,98.3615,99.1255,260.9901,0.00019828,2.87e-05,0.0,0 STARLINK-4593,1 53633U 22104AX  24186.16556457  .00002870  00000-0  19828-3 0  9997,2 53633  53.2155  98.3615 0001449  99.1255 260.9901 15.08850049102587,6917.85,95.437,540.717,538.712,0.0
53633.0,STARLINK-4593,PAYLOAD,2024-07-04 21:27:39,15.08842938,0.000171,53.2141,95.0898,107.3982,252.7197,8.3055e-05,1.034e-05,0.0,0 STARLINK-4593,1 53633U 22104AX  24186.89420727  .00001034  00000-0  83055-4 0  9992,2 53633  53.2141  95.0898 0001710 107.3982 252.7197 15.08842938102695,6917.871,95.437,540.919,538.553,0.0
53633.0,STARLINK-4593,PAYLOAD,2024-07-04 23:03:02,15.0884458,0.0001681,53.2167,94.7901,108.0936,252.0239,0.00014818,2.071e-05,0.0,0 STARLINK-4593,1 53633U 22104AX  24186.96044657  .00002071  00000-0  14818-3 0  9996,2 53633  53.2167  94.7901 0001681 108.0936 252.0239 15.08844580103391,6917.866,95.437,540.894,538.568,0.0
53633.0,STARLINK-4593,PAYLOAD,2024-07-05 00:38:25,15.08847092,0.0001284,53.2166,94.4952,87.0962,273.0177,0.00014356,1.998e-05,0.0,0 STARLINK-4593,1 53633U 22104AX  24187.02668587  .00001998  00000-0  14356-3 0  9992,2 53633  53.2166  94.4952 0001284  87.0962 273.0177 15.08847092103404,6917.859,95.437,540.612,538.835,0.0
53633.0,STARLINK-4593,PAYLOAD,2024-07-05 21:18:26,15.08840362,0.0001347,53.2164,90.6313,84.648,275.4666,6.8516e-05,8.03e-06,0.0,0 STARLINK-4593,1 53633U 22104AX  24187.88780897  .00000803  00000-0  68516-4 0  9997,2 53633  53.2164  90.6313 0001347  84.6480 275.4666 15.08840362103535,6917.879,95.438,540.676,538.812,0.0
53633.0,STARLINK-4593,PAYLOAD,2024-07-06 00:29:12,15.0885255,0.0001318,53.2171,90.035,92.0272,268.0871,0.00028025,4.177e-05,0.0,0 STARLINK-4593,1 53633U 22104AX  24188.02028398  .00004177  00000-0  28025-3 0  9993,2 53633  53.2171  90.0350 0001318  92.0272 268.0871 15.08852550102861,6917.842,95.437,540.619,538.795,0.0
53633.0,STARLINK-4593,PAYLOAD,2024-07-06 10:01:31,15.08846368,0.0001324,53.2168,88.2513,89.9783,270.1361,8.6892e-05,1.095e-05,0.0,0 STARLINK-4593,1 53633U 22104AX  24188.41772386  .00001095  00000-0  86892-4 0  9992,2 53633  53.2168  88.2513 0001324  89.9783 270.1361 15.08846368102921,6917.861,95.437,540.642,538.81,0.0
53633.0,STARLINK-4593,PAYLOAD,2024-07-06 21:09:14,15.08834198,0.0001878,53.2174,86.1768,98.6925,261.428,-0.00010051,-1.887e-05,0.0,0 STARLINK-4593,1 53633U 22104AX  24188.88141221 -.00001887  00000-0 -10051-3 0  9995,2 53633  53.2174  86.1768 0001878  98.6925 261.4280 15.08834198102994,6917.898,95.438,541.062,538.464,0.0
53633.0,STARLINK-4593,PAYLOAD,2024-07-06 22:44:37,15.08832786,0.0001729,53.2195,85.8812,103.7165,256.402,-8.6412e-05,-1.663e-05,0.0,0 STARLINK-4593,1 53633U 22104AX  24188.94765242 -.00001663  00000-0 -86412-4 0  9994,2 53633  53.2195  85.8812 0001729 103.7165 256.4020 15.08832786103697,6917.902,95.438,540.964,538.571,0.0
53633.0,STARLINK-4593,PAYLOAD,2024-07-07 01:55:23,15.08835819,0.0001604,53.2186,85.282,93.1689,266.9487,1.2086e-05,-9.6e-07,0.0,0 STARLINK-4593,1 53633U 22104AX  24189.08013536 -.00000096  00000-0  12086-4 0  9996,2 53633  53.2186  85.2820 0001604  93.1689 266.9487 15.08835819103711,6917.893,95.438,540.868,538.649,0.0
53633.0,STARLINK-4593,PAYLOAD,2024-07-07 22:35:24,15.08844271,0.0001632,53.2193,81.417,101.0789,259.0387,3.6459e-05,2.92e-06,0.0,0 STARLINK-4593,1 53633U 22104AX  24189.94125210  .00000292  00000-0  36459-4 0  9991,2 53633  53.2193  81.4170 0001632 101.0789 259.0387 15.08844271103158,6917.867,95.437,540.861,538.603,0.0
53633.0,STARLINK-4593,PAYLOAD,2024-07-08 09:43:06,15.08840924,0.0001731,53.2186,79.3303,89.4235,270.6955,5.4965e-06,-2.01e-06,0.0,0 STARLINK-4593,1 53633U 22104AX  24190.40493170 -.00000201  00000-0  54965-5 0  9991,2 53633  53.2186  79.3303 0001731  89.4235 270.6955 15.08840924103914,6917.878,95.437,540.94,538.545,0.0
53633.0,STARLINK-4593,PAYLOAD,2024-07-08 20:50:48,15.08838705,0.0001623,53.218,77.2497,91.5277,268.5901,0.00021745,3.174e-05,0.0,0 STARLINK-4593,1 53633U 22104AX  24190.86861398  .00003174  00000-0  21745-3 0  9991,2 53633  53.2180  77.2497 0001623  91.5277 268.5901 15.08838705103291,6917.884,95.438,540.872,538.627,0.0
53633.0,STARLINK-4593,PAYLOAD,2024-07-08 22:26:11,15.08841402,0.0001566,53.2171,76.9549,95.5035,264.6135,0.00014736,2.058e-05,0.0,0 STARLINK-4593,1 53633U 22104AX  24190.93485284  .00002058  00000-0  14736-3 0  9997,2 53633  53.2171  76.9549 0001566  95.5035 264.6135 15.08841402103998,6917.876,95.437,540.824,538.658,0.0
53633.0,STARLINK-4593,PAYLOAD,2024-07-09 09:33:53,15.08835306,0.0001646,53.2164,74.8693,80.2435,279.8743,-7.6639e-06,-4.1e-06,0.0,0 STARLINK-4593,1 53633U 22104AX  24191.39853589 -.00000410  00000-0 -76639-5 0  9999,2 53633  53.2164  74.8693 0001646  80.2435 279.8743 15.08835306104069,6917.895,95.438,540.898,538.621,0.0
53633.0,STARLINK-4593,PAYLOAD,2024-07-09 20:41:35,15.08839518,0.0001746,53.219,72.7829,91.4228,268.6964,7.6746e-07,-2.76e-06,0.0,0 STARLINK-4593,1 53633U 22104AX  24191.86221892 -.00000276  00000-0  76746-6 0  9996,2 53633  53.2190  72.7829 0001746  91.4228 268.6964 15.08839518103442,6917.882,95.438,540.955,538.539,0.0
